     2.100          NAVIGATION                              RINEX VERSION / TYPE
fic2rin                                 08/03/2016 00:16:17 PGM / RUN BY / DATE
                                                            END OF HEADER
11 16  8  2  8  0  0.0 -.657913740724D-03 -.125055521494D-11  .000000000000D+00
     .730000000000D+02 -.139125000000D+03  .559487590618D-08  .170675189435D+01
    -.753812491894D-05  .166853871197D-01  .658631324768D-05  .515368158150D+04
     .201600000000D+06  .182539224625D-06  .249020985679D+01 -.383704900742D-06
     .897639463155D+00  .219593750000D+03  .154967519540D+01 -.864571727168D-08
    -.226438003480D-09  .100000000000D+01  .190800000000D+04  .000000000000D+00
     .485000000000D+01  .000000000000D+00 -.121071934700D-07  .730000000000D+02
     .194406000000D+06  .400000000000D+01
12 16  8  2  8  0  0.0  .386662781239D-03  .795807864051D-12  .000000000000D+00
     .460000000000D+02  .129062500000D+03  .396195074544D-08  .992132219455D+00
     .673532485962D-05  .607137905899D-02  .588037073612D-05  .515368874168D+04
     .201600000000D+06 -.372529029846D-07  .824224968895D+00  .484287738800D-07
     .990251676300D+00  .280531250000D+03  .785054240135D+00 -.804140638542D-08
     .214651798252D-09  .100000000000D+01  .190800000000D+04  .000000000000D+00
     .240000000000D+01  .000000000000D+00 -.125728547573D-07  .460000000000D+02
     .194406000000D+06  .400000000000D+01
13 16  8  2  8  0  0.0 -.350130721927D-04 -.238742359215D-11  .000000000000D+00
     .740000000000D+02 -.260000000000D+02  .479984278986D-08  .253310944963D+01
    -.149011611938D-05  .410032039508D-02  .596791505814D-05  .515367249870D+04
     .201600000000D+06  .931322574615D-07 -.120929519321D+01 -.745058059692D-08
     .970636196288D+00  .269531250000D+03  .199277802819D+01 -.802604860285D-08
    -.383944564261D-09  .100000000000D+01  .190800000000D+04  .000000000000D+00
     .240000000000D+01  .000000000000D+00 -.111758708954D-07  .740000000000D+02
     .194406000000D+06  .400000000000D+01
14 16  8  2  8  0  0.0 -.277375802398D-04 -.193267624127D-11  .000000000000D+00
     .750000000000D+02 -.324062500000D+02  .497663586829D-08 -.223145964475D+01
    -.164844095707D-05  .892125675455D-02  .503286719322D-05  .515403405190D+04
     .201600000000D+06  .134110450745D-06 -.124677906624D+01  .558793544769D-07
     .963110617995D+00  .280031250000D+03 -.195849865526D+01 -.812212403335D-08
    -.187150652719D-09  .100000000000D+01  .190800000000D+04  .000000000000D+00
     .240000000000D+01  .000000000000D+00 -.931322574615D-08  .750000000000D+02
     .194406000000D+06  .400000000000D+01
15 16  8  2  8  0  0.0 -.321806874126D-03 -.147792889038D-11  .000000000000D+00
     .100000000000D+02 -.207500000000D+02  .584202905825D-08 -.264104114926D+01
    -.126846134663D-05  .825998047367D-02  .478699803352D-05  .515362704659D+04
     .201600000000D+06 -.242143869400D-07 -.138531066869D+01 -.171363353729D-06
     .929942765837D+00  .274031250000D+03  .488084784176D+00 -.855928510001D-08
    -.116790579082D-09  .100000000000D+01  .190800000000D+04  .000000000000D+00
     .240000000000D+01  .000000000000D+00 -.107102096081D-07  .100000000000D+02
     .194406000000D+06  .400000000000D+01
16 16  8  2  8  0  0.0 -.123074278235D-05  .216004991671D-11  .000000000000D+00
     .790000000000D+02  .112718750000D+03  .383658838073D-08 -.102225903943D+01
     .592134892941D-05  .867145671509D-02  .523589551449D-05  .515354393196D+04
     .201600000000D+06  .149011611938D-06  .843024815025D+00 -.409781932831D-07
     .990742023033D+00  .295937500000D+03  .388045373979D+00 -.791211528565D-08
     .235724104569D-09  .100000000000D+01  .190800000000D+04  .000000000000D+00
     .240000000000D+01  .000000000000D+00 -.107102096081D-07  .790000000000D+02
     .194406000000D+06  .400000000000D+01
17 16  8  2  8  0  0.0 -.203609466553D-03  .341060513165D-12  .000000000000D+00
     .730000000000D+02 -.782812500000D+02  .431660837549D-08 -.188328140705D+01
    -.395625829697D-05  .110462178709D-01  .172480940819D-05  .515372493935D+04
     .201600000000D+06  .217929482460D-06  .186422631244D+01 -.130385160446D-07
     .976839915452D+00  .355750000000D+03 -.192513388994D+01 -.815676833357D-08
    -.325727853587D-09  .100000000000D+01  .190800000000D+04  .000000000000D+00
     .340000000000D+01  .000000000000D+00 -.107102096081D-07  .730000000000D+02
     .194406000000D+06  .400000000000D+01
18 16  8  2  8  0  0.0  .542985275388D-03  .409272615798D-11  .000000000000D+00
     .450000000000D+02  .295625000000D+02  .552487299028D-08 -.323180471410D+00
     .161677598953D-05  .172566381516D-01  .909902155399D-05  .515370110321D+04
     .201600000000D+06 -.143423676491D-06 -.240564348096D+01  .199303030968D-06
     .925130587517D+00  .192343750000D+03 -.186642418008D+01 -.871429155665D-08
     .773246494535D-09  .100000000000D+01  .190800000000D+04  .000000000000D+00
     .240000000000D+01  .000000000000D+00 -.111758708954D-07  .450000000000D+02
     .194406000000D+06  .400000000000D+01
19 16  8  2  8  0  0.0 -.524528790265D-03  .341060513165D-12  .000000000000D+00
     .440000000000D+02 -.811562500000D+02  .441696969880D-08  .123153878800D+01
    -.415369868279D-05  .107063611504D-01  .272504985332D-05  .515362302399D+04
     .201600000000D+06 -.184401869774D-06  .191285599301D+01 -.186264514923D-08
     .973995546275D+00  .342531250000D+03  .832916191537D+00 -.838713507213D-08
    -.501449458811D-09  .100000000000D+01  .190800000000D+04  .000000000000D+00
     .240000000000D+01  .000000000000D+00 -.149011611938D-07  .440000000000D+02
     .194406000000D+06  .400000000000D+01
20 16  8  2  8  0  0.0  .427728053182D-03  .216004991671D-11  .000000000000D+00
     .710000000000D+02  .262500000000D+02  .526736226392D-08 -.272466222546D+01
     .113993883133D-05  .460902007762D-02  .908598303795D-05  .515377605438D+04
     .201600000000D+06  .968575477600D-07 -.245735049163D+01  .130385160446D-07
     .926467153361D+00  .180687500000D+03  .140641864991D+01 -.825427239501D-08
     .778603860547D-09  .100000000000D+01  .190800000000D+04  .000000000000D+00
     .240000000000D+01  .000000000000D+00 -.838190317154D-08  .710000000000D+02
     .194406000000D+06  .400000000000D+01
21 16  8  2  8  0  0.0 -.529653392732D-03 -.795807864051D-12  .000000000000D+00
     .990000000000D+02 -.108156250000D+03  .479055668877D-08  .609368617575D+00
    -.563450157642D-05  .233566823881D-01  .107549130917D-04  .515358022499D+04
     .201600000000D+06 -.370666384697D-06  .283631749194D+01 -.135973095894D-06
     .937396636275D+00  .169625000000D+03 -.177140963455D+01 -.850142554707D-08
    -.205365697163D-09  .100000000000D+01  .190800000000D+04  .000000000000D+00
     .240000000000D+01  .000000000000D+00 -.977888703346D-08  .990000000000D+02
     .194406000000D+06  .400000000000D+01
22 16  8  2  8  0  0.0  .281919725239D-03 -.943600753089D-11  .000000000000D+00
     .710000000000D+02  .442500000000D+02  .539558189050D-08 -.236968218234D+01
     .204890966415D-05  .758453586604D-02  .825710594654D-05  .515376319122D+04
     .201600000000D+06  .894069671631D-07 -.240513663105D+01  .186264514923D-07
     .923056115552D+00  .194468750000D+03 -.188109855480D+01 -.832534678411D-08
     .765746182116D-09  .100000000000D+01  .190800000000D+04  .000000000000D+00
     .240000000000D+01  .000000000000D+00 -.176951289177D-07  .710000000000D+02
     .194406000000D+06  .400000000000D+01
23 16  8  2  8  0  0.0 -.184542965144D-03 -.147792889038D-11  .000000000000D+00
     .900000000000D+01 -.281250000000D+02  .538415284301D-08  .309640771061D+01
    -.149942934513D-05  .111484443769D-01  .512786209583D-05  .515363122749D+04
     .201600000000D+06 -.124797224998D-06 -.132645086636D+01 -.163912773132D-06
     .945175790937D+00  .276718750000D+03 -.254317602739D+01 -.827463038585D-08
    -.246795994329D-09  .100000000000D+01  .190800000000D+04  .000000000000D+00
     .240000000000D+01  .000000000000D+00 -.200234353542D-07  .900000000000D+01
     .194406000000D+06  .400000000000D+01
24 16  8  2  8  0  0.0 -.210436992347D-04 -.568434188608D-12  .000000000000D+00
     .111000000000D+03  .286562500000D+02  .466233706220D-08  .256755375194D+01
     .146962702274D-05  .450880988501D-02  .126790255308D-04  .515374166489D+04
     .201600000000D+06 -.122934579849D-06 -.301102435062D+00 -.726431608200D-07
     .948977525889D+00  .126750000000D+03  .411902491335D+00 -.786211320286D-08
    -.463947896721D-09  .100000000000D+01  .190800000000D+04  .000000000000D+00
     .340000000000D+01  .000000000000D+00  .232830643654D-08  .111000000000D+03
     .194406000000D+06  .400000000000D+01
25 16  8  2  8  0  0.0 -.219577923417D-03 -.693489710102D-11  .000000000000D+00
     .850000000000D+02  .132062500000D+03  .422910473062D-08  .454465735899D+00
     .694766640663D-05  .558900763281D-02  .625103712082D-05  .515372298431D+04
     .201600000000D+06  .558793544769D-08  .772524349711D+00  .186264514923D-07
     .978461292429D+00  .264968750000D+03  .796019634762D+00 -.817105464294D-08
     .210365905441D-09  .100000000000D+01  .190800000000D+04  .000000000000D+00
     .240000000000D+01  .000000000000D+00  .558793544769D-08  .850000000000D+02
     .194406000000D+06  .400000000000D+01
26 16  8  2  8  0  0.0 -.438484363258D-03 -.920863385545D-11  .000000000000D+00
     .400000000000D+01  .126593750000D+03  .451018786743D-08 -.208464275602D+00
     .645220279694D-05  .903487438336D-03  .606477260590D-05  .515355784988D+04
     .201600000000D+06 -.745058059692D-08  .762382948081D+00 -.372529029846D-08
     .960405328440D+00  .262843750000D+03  .637553084645D-01 -.818998400285D-08
     .170007081477D-09  .100000000000D+01  .190800000000D+04  .000000000000D+00
     .240000000000D+01  .000000000000D+00  .698491930962D-08  .400000000000D+01
     .194406000000D+06  .400000000000D+01
